{"type": "FeatureCollection", "features": [ {"type": "Feature", "properties": {"norad_id": 34990, "name": "COSMOS 2251 DEB", "group": "cosmos-2251-debris", "lat": 7.875536522962306, "lon": -131.70564649458967, "alt_km": 750.5051696881774, "timestamp": "2025-12-26T09:30:54.035726+00:00", "meta": {"OBJECT_NAME": "COSMOS 2251 DEB", "OBJECT_ID": "1993-036AFN", "EPOCH": "2025-12-15T10:28:28.781472", "MEAN_MOTION": 14.42382837, "ECCENTRICITY": 0.00165597, "INCLINATION": 74.0457, "RA_OF_ASC_NODE": 246.3361, "ARG_OF_PERICENTER": 308.9911, "MEAN_ANOMALY": 50.977, "EPHEMERIS_TYPE": 0, "CLASSIFICATION_TYPE": "U", "NORAD_CAT_ID": 34990, "ELEMENT_SET_NO": 999, "REV_AT_EPOCH": 87385, "BSTAR": 0.00031884459, "MEAN_MOTION_DOT": 1.029e-05, "MEAN_MOTION_DDOT": 0}, "tle": {"line1": "1 34990U 93036AFN 25349.43644423  .00001029  00000+0  31884-3 0  9997", "line2": "2 34990  74.0457 246.3361 0016559 308.9911  50.9770 14.42382837873857"}}, "geometry": {"type": "Point", "coordinates": [-131.70564649458967, 7.875536522962306]}}, {"type": "Feature", "properties": {"norad_id": 34997, "name": "COSMOS 2251 DEB", "group": "cosmos-2251-debris", "lat": -24.588308945750082, "lon": -82.12099781175685, "alt_km": 727.8559530410612, "timestamp": "2025-12-26T09:30:54.035736+00:00", "meta": {"OBJECT_NAME": "COSMOS 2251 DEB", "OBJECT_ID": "1993-036AFV", "EPOCH": "2025-12-25T02:04:43.961088", "MEAN_MOTION": 14.45692519, "ECCENTRICITY": 0.0097082, "INCLINATION": 73.8805, "RA_OF_ASC_NODE": 287.9486, "ARG_OF_PERICENTER": 260.9116, "MEAN_ANOMALY": 98.1047, "EPHEMERIS_TYPE": 0, "CLASSIFICATION_TYPE": "U", "NORAD_CAT_ID": 34997, "ELEMENT_SET_NO": 999, "REV_AT_EPOCH": 70925, "BSTAR": 0.0014829351, "MEAN_MOTION_DOT": 5.538e-05, "MEAN_MOTION_DDOT": 0}, "tle": {"line1": "1 34997U 93036AFV 25359.08661992  .00005538  00000+0  14829-2 0  9994", "line2": "2 34997  73.8805 287.9486 0097082 260.9116  98.1047 14.45692519709258"}}, "geometry": {"type": "Point", "coordinates": [-82.12099781175685, -24.588308945750082]}}, {"type": "Feature", "properties": {"norad_id": 34998, "name": "COSMOS 2251 DEB", "group": "cosmos-2251-debris", "lat": 31.44930407569953, "lon": 144.42876226026308, "alt_km": 732.1266126467208, "timestamp": "2025-12-26T09:30:54.035746+00:00", "meta": {"OBJECT_NAME": "COSMOS 2251 DEB", "OBJECT_ID": "1993-036AFW", "EPOCH": "2025-12-25T08:38:30.636384", "MEAN_MOTION": 14.49334819, "ECCENTRICITY": 0.0021619, "INCLINATION": 74.0105, "RA_OF_ASC_NODE": 136.2753, "ARG_OF_PERICENTER": 280.2625, "MEAN_ANOMALY": 107.2327, "EPHEMERIS_TYPE": 0, "CLASSIFICATION_TYPE": "U", "NORAD_CAT_ID": 34998, "ELEMENT_SET_NO": 999, "REV_AT_EPOCH": 87603, "BSTAR": 0.0006634, "MEAN_MOTION_DOT": 2.514e-05, "MEAN_MOTION_DDOT": 0}, "tle": {"line1": "1 34998U 93036AFW 25359.36007681  .00002514  00000+0  66340-3 0  9992", "line2": "2 34998  74.0105 136.2753 0021619 280.2625 107.2327 14.49334819876035"}}, "geometry": {"type": "Point", "coordinates": [144.42876226026308, 31.44930407569953]}}, {"type": "Feature", "properties": {"norad_id": 35012, "name": "COSMOS 2251 DEB", "group": "cosmos-2251-debris", "lat": -1.3254832979073836, "lon": -93.37146476628192, "alt_km": 699.8342439794333, "timestamp": "2025-12-26T09:30:54.035756+00:00", "meta": {"OBJECT_NAME": "COSMOS 2251 DEB", "OBJECT_ID": "1993-036AFZ", "EPOCH": "2025-12-25T16:03:50.745312", "MEAN_MOTION": 14.45565174, "ECCENTRICITY": 0.00814067, "INCLINATION": 74.021, "RA_OF_ASC_NODE": 87.6052, "ARG_OF_PERICENTER": 225.0249, "MEAN_ANOMALY": 134.4292, "EPHEMERIS_TYPE": 0, "CLASSIFICATION_TYPE": "U", "NORAD_CAT_ID": 35012, "ELEMENT_SET_NO": 999, "REV_AT_EPOCH": 87748, "BSTAR": 0.00018643445, "MEAN_MOTION_DOT": 6.56e-06, "MEAN_MOTION_DDOT": 0}, "tle": {"line1": "1 35012U 93036AFZ 25359.66933733  .00000656  00000+0  18643-3 0  9997", "line2": "2 35012  74.0210  87.6052 0081406 225.0249 134.4292 14.45565174877489"}}, "geometry": {"type": "Point", "coordinates": [-93.37146476628192, -1.3254832979073836]}}, {"type": "Feature", "properties": {"norad_id": 35014, "name": "COSMOS 2251 DEB", "group": "cosmos-2251-debris", "lat": -47.346130718688585, "lon": -1.3713243486302094, "alt_km": 652.2021551088019, "timestamp": "2025-12-26T09:30:54.035766+00:00", "meta": {"OBJECT_NAME": "COSMOS 2251 DEB", "OBJECT_ID": "1993-036AGB", "EPOCH": "2025-12-22T09:43:37.618464", "MEAN_MOTION": 14.75357031, "ECCENTRICITY": 0.00066485, "INCLINATION": 73.9987, "RA_OF_ASC_NODE": 24.596, "ARG_OF_PERICENTER": 203.6446, "MEAN_ANOMALY": 156.4423, "EPHEMERIS_TYPE": 0, "CLASSIFICATION_TYPE": "U", "NORAD_CAT_ID": 35014, "ELEMENT_SET_NO": 999, "REV_AT_EPOCH": 71479, "BSTAR": 0.0015862083, "MEAN_MOTION_DOT": 0.00010749, "MEAN_MOTION_DDOT": 0}, "tle": {"line1": "1 35014U 93036AGB 25356.40529651  .00010749  00000+0  15862-2 0  9991", "line2": "2 35014  73.9987  24.5960 0006648 203.6446 156.4423 14.75357031714792"}}, "geometry": {"type": "Point", "coordinates": [-1.3713243486302094, -47.346130718688585]}}, {"type": "Feature", "properties": {"norad_id": 35015, "name": "COSMOS 2251 DEB", "group": "cosmos-2251-debris", "lat": 22.62443632283122, "lon": -144.03735465551676, "alt_km": 701.0554691568241, "timestamp": "2025-12-26T09:30:54.035778+00:00", "meta": {"OBJECT_NAME": "COSMOS 2251 DEB", "OBJECT_ID": "1993-036AGC", "EPOCH": "2025-12-24T20:59:07.900800", "MEAN_MOTION": 14.46938139, "ECCENTRICITY": 0.0074531, "INCLINATION": 73.9465, "RA_OF_ASC_NODE": 211.9291, "ARG_OF_PERICENTER": 77.5315, "MEAN_ANOMALY": 301.6184, "EPHEMERIS_TYPE": 0, "CLASSIFICATION_TYPE": "U", "NORAD_CAT_ID": 35015, "ELEMENT_SET_NO": 999, "REV_AT_EPOCH": 65616, "BSTAR": 0.00073268, "MEAN_MOTION_DOT": 2.728e-05, "MEAN_MOTION_DDOT": 0}, "tle": {"line1": "1 35015U 93036AGC 25358.87439700  .00002728  00000+0  73268-3 0  9993", "line2": "2 35015  73.9465 211.9291 0074531  77.5315 301.6184 14.46938139656168"}}, "geometry": {"type": "Point", "coordinates": [-144.03735465551676, 22.62443632283122]}}, {"type": "Feature", "properties": {"norad_id": 35016, "name": "COSMOS 2251 DEB", "group": "cosmos-2251-debris", "lat": -4.7917686966680835, "lon": 90.60922140725263, "alt_km": 696.4209833133473, "timestamp": "2025-12-26T09:30:54.035790+00:00", "meta": {"OBJECT_NAME": "COSMOS 2251 DEB", "OBJECT_ID": "1993-036AGD", "EPOCH": "2025-12-21T05:33:15.838848", "MEAN_MOTION": 14.35075882, "ECCENTRICITY": 0.01140745, "INCLINATION": 73.9302, "RA_OF_ASC_NODE": 278.7521, "ARG_OF_PERICENTER": 193.9283, "MEAN_ANOMALY": 317.5381, "EPHEMERIS_TYPE": 0, "CLASSIFICATION_TYPE": "U", "NORAD_CAT_ID": 35016, "ELEMENT_SET_NO": 999, "REV_AT_EPOCH": 86904, "BSTAR": 0.00026149228, "MEAN_MOTION_DOT": 7.75e-06, "MEAN_MOTION_DDOT": 0}, "tle": {"line1": "1 35016U 93036AGD 25355.23143332  .00000775  00000+0  26149-3 0  9990", "line2": "2 35016  73.9302 278.7521 0114074 193.9283 317.5381 14.35075882869043"}}, "geometry": {"type": "Point", "coordinates": [90.60922140725263, -4.7917686966680835]}}, {"type": "Feature", "properties": {"norad_id": 35018, "name": "COSMOS 2251 DEB", "group": "cosmos-2251-debris", "lat": -6.03585275248423, "lon": -90.7660674769958, "alt_km": 1264.5674832457835, "timestamp": "2025-12-26T09:30:54.035801+00:00", "meta": {"OBJECT_NAME": "COSMOS 2251 DEB", "OBJECT_ID": "1993-036AGF", "EPOCH": "2025-12-24T16:12:38.101536", "MEAN_MOTION": 13.67138502, "ECCENTRICITY": 0.03490652, "INCLINATION": 73.9764, "RA_OF_ASC_NODE": 90.3261, "ARG_OF_PERICENTER": 356.917, "MEAN_ANOMALY": 2.9788, "EPHEMERIS_TYPE": 0, "CLASSIFICATION_TYPE": "U", "NORAD_CAT_ID": 35018, "ELEMENT_SET_NO": 999, "REV_AT_EPOCH": 83349, "BSTAR": 0.00085132295, "MEAN_MOTION_DOT": 1.064e-05, "MEAN_MOTION_DDOT": 0}, "tle": {"line1": "1 35018U 93036AGF 25358.67544099  .00001064  00000+0  85132-3 0  9997", "line2": "2 35018  73.9764  90.3261 0349065 356.9170   2.9788 13.67138502833491"}}, "geometry": {"type": "Point", "coordinates": [-90.7660674769958, -6.03585275248423]}}, {"type": "Feature", "properties": {"norad_id": 35020, "name": "COSMOS 2251 DEB", "group": "cosmos-2251-debris", "lat": -21.026810968595782, "lon": -0.902698550155948, "alt_km": 679.3514451831952, "timestamp": "2025-12-26T09:30:54.035811+00:00", "meta": {"OBJECT_NAME": "COSMOS 2251 DEB", "OBJECT_ID": "1993-036AGH", "EPOCH": "2025-12-25T19:27:19.630368", "MEAN_MOTION": 14.62824887, "ECCENTRICITY": 0.00913367, "INCLINATION": 74.0447, "RA_OF_ASC_NODE": 173.9055, "ARG_OF_PERICENTER": 284.996, "MEAN_ANOMALY": 74.111, "EPHEMERIS_TYPE": 0, "CLASSIFICATION_TYPE": "U", "NORAD_CAT_ID": 35020, "ELEMENT_SET_NO": 999, "REV_AT_EPOCH": 88429, "BSTAR": 0.00015615367, "MEAN_MOTION_DOT": 8.12e-06, "MEAN_MOTION_DDOT": 0}, "tle": {"line1": "1 35020U 93036AGH 25359.81064387  .00000812  00000+0  15615-3 0  9993", "line2": "2 35020  74.0447 173.9055 0091336 284.9960  74.1110 14.62824887884293"}}, "geometry": {"type": "Point", "coordinates": [-0.902698550155948, -21.026810968595782]}}, {"type": "Feature", "properties": {"norad_id": 35022, "name": "COSMOS 2251 DEB", "group": "cosmos-2251-debris", "lat": 20.263928845505724, "lon": 109.74687327819169, "alt_km": 660.8208292628678, "timestamp": "2025-12-26T09:30:54.035822+00:00", "meta": {"OBJECT_NAME": "COSMOS 2251 DEB", "OBJECT_ID": "1993-036AGK", "EPOCH": "2025-12-25T13:04:16.912416", "MEAN_MOTION": 14.60885818, "ECCENTRICITY": 0.0046189, "INCLINATION": 74.0261, "RA_OF_ASC_NODE": 297.4455, "ARG_OF_PERICENTER": 133.747, "MEAN_ANOMALY": 226.7535, "EPHEMERIS_TYPE": 0, "CLASSIFICATION_TYPE": "U", "NORAD_CAT_ID": 35022, "ELEMENT_SET_NO": 999, "REV_AT_EPOCH": 59330, "BSTAR": 0.00049139, "MEAN_MOTION_DOT": 2.411e-05, "MEAN_MOTION_DDOT": 0}, "tle": {"line1": "1 35022U 93036AGK 25359.54464019  .00002411  00000+0  49139-3 0  9996", "line2": "2 35022  74.0261 297.4455 0046189 133.7470 226.7535 14.60885818593302"}}, "geometry": {"type": "Point", "coordinates": [109.74687327819169, 20.263928845505724]}}]}